NORAD_CAT_ID,OBJECT_NAME,OBJECT_TYPE,EPOCH,MEAN_MOTION,ECCENTRICITY,INCLINATION,RA_OF_ASC_NODE,ARG_OF_PERICENTER,MEAN_ANOMALY,BSTAR,MEAN_MOTION_DOT,MEAN_MOTION_DDOT,TLE_LINE0,TLE_LINE1,TLE_LINE2,SEMIMAJOR_AXIS,PERIOD,APOGEE,PERIGEE,DECAYED
52615.0,STARLINK-4011,PAYLOAD,2024-06-17 20:45:34,15.08841288,9.05e-05,53.2161,231.5138,90.4134,269.6962,-2.6488e-05,-7.09e-06,0.0,0 STARLINK-4011,1 52615U 22052T   24169.86498616 -.00000709  00000-0 -26488-4 0  9990,2 52615  53.2161 231.5138 0000905  90.4134 269.6962 15.08841288115694,6917.876,95.437,540.368,539.115,0.0
52615.0,STARLINK-4011,PAYLOAD,2024-06-18 11:04:03,15.08839707,0.000102,53.2167,228.8388,89.0208,271.0901,9.1769e-05,1.173e-05,0.0,0 STARLINK-4011,1 52615U 22052T   24170.46114615  .00001173  00000-0  91769-4 0  9990,2 52615  53.2167 228.8388 0001020  89.0208 271.0901 15.08839707115784,6917.881,95.438,540.452,539.041,0.0
52615.0,STARLINK-4011,PAYLOAD,2024-06-19 10:54:50,15.08832096,9.95e-05,53.216,224.3796,97.5058,262.6047,5.4413e-05,5.78e-06,0.0,0 STARLINK-4011,1 52615U 22052T   24171.45475525  .00000578  00000-0  54413-4 0  9993,2 52615  53.2160 224.3796 0000995  97.5058 262.6047 15.08832096116319,6917.905,95.438,540.458,539.081,0.0
52615.0,STARLINK-4011,PAYLOAD,2024-06-19 14:05:36,15.08839074,0.0001104,53.2164,223.7833,90.7716,269.3402,0.00010011,1.306e-05,0.0,0 STARLINK-4011,1 52615U 22052T   24171.58722994  .00001306  00000-0  10011-3 0  9997,2 52615  53.2164 223.7833 0001104  90.7716 269.3402 15.08839074115958,6917.883,95.438,540.512,538.984,0.0
52615.0,STARLINK-4011,PAYLOAD,2024-06-20 12:21:00,15.08842996,9.72e-05,53.2153,219.6189,81.4493,278.661,5.0856e-05,5.22e-06,0.0,0 STARLINK-4011,1 52615U 22052T   24172.51458992  .00000522  00000-0  50856-4 0  9996,2 52615  53.2153 219.6189 0000972  81.4493 278.6610 15.08842996116092,6917.871,95.437,540.409,539.064,0.0
52615.0,STARLINK-4011,PAYLOAD,2024-06-21 02:39:29,15.08836295,0.0001041,53.2152,216.9426,80.1723,279.9386,7.3943e-05,8.89e-06,0.0,0 STARLINK-4011,1 52615U 22052T   24173.11075367  .00000889  00000-0  73943-4 0  9992,2 52615  53.2152 216.9426 0001041  80.1723 279.9386 15.08836295116566,6917.892,95.438,540.477,539.037,0.0
52615.0,STARLINK-4011,PAYLOAD,2024-06-21 10:36:24,15.08840044,0.0001069,53.2157,215.4556,80.2706,279.8407,2.6744e-05,1.38e-06,0.0,0 STARLINK-4011,1 52615U 22052T   24173.44195365  .00000138  00000-0  26744-4 0  9993,2 52615  53.2157 215.4556 0001069  80.2706 279.8407 15.08840044116235,6917.88,95.438,540.485,539.006,0.0
52615.0,STARLINK-4011,PAYLOAD,2024-06-22 12:02:35,15.08839673,0.0001174,53.2162,210.6983,77.8102,282.3021,2.1295e-05,5.1e-07,0.0,0 STARLINK-4011,1 52615U 22052T   24174.50179582  .00000051  00000-0  21295-4 0  9994,2 52615  53.2162 210.6983 0001174  77.8102 282.3021 15.08839673116777,6917.881,95.438,540.559,538.934,0.0
52615.0,STARLINK-4011,PAYLOAD,2024-06-23 11:53:21,15.08846112,0.000113,53.216,206.2377,77.5269,282.5849,0.00010676,1.412e-05,0.0,0 STARLINK-4011,1 52615U 22052T   24175.49538744  .00001412  00000-0  10676-3 0  9994,2 52615  53.2160 206.2377 0001130  77.5269 282.5849 15.08846112116929,6917.862,95.437,540.508,538.945,0.0
52615.0,STARLINK-4011,PAYLOAD,2024-06-24 02:11:50,15.0884134,0.0001203,53.2159,203.56,66.9053,293.2066,5.3317e-05,5.61e-06,0.0,0 STARLINK-4011,1 52615U 22052T   24176.09155175  .00000561  00000-0  53317-4 0  9998,2 52615  53.2159 203.5600 0001203  66.9053 293.2066 15.08841340117019,6917.876,95.437,540.574,538.909,0.0
52615.0,STARLINK-4011,PAYLOAD,2024-06-24 08:33:22,15.0884175,0.0001126,53.2157,202.3706,74.4843,285.6273,5.4138e-05,5.74e-06,0.0,0 STARLINK-4011,1 52615U 22052T   24176.35651064  .00000574  00000-0  54138-4 0  9991,2 52615  53.2157 202.3706 0001126  74.4843 285.6273 15.08841750116677,6917.875,95.437,540.519,538.961,0.0
52615.0,STARLINK-4011,PAYLOAD,2024-06-25 05:13:23,15.08836363,0.0001195,53.216,198.5044,87.8656,272.2473,-3.9816e-05,-9.21e-06,0.0,0 STARLINK-4011,1 52615U 22052T   24177.21763679 -.00000921  00000-0 -39816-4 0  9997,2 52615  53.2160 198.5044 0001195  87.8656 272.2473 15.08836363117183,6917.892,95.438,540.583,538.93,0.0
52615.0,STARLINK-4011,PAYLOAD,2024-06-25 08:24:10,15.08835683,0.0001183,53.2159,197.9097,85.1952,274.9175,-4.7378e-05,-1.042e-05,0.0,0 STARLINK-4011,1 52615U 22052T   24177.35011758 -.00001042  00000-0 -47378-4 0  9993,2 52615  53.2159 197.9097 0001183  85.1952 274.9175 15.08835683116821,6917.894,95.438,540.577,538.94,0.0
52615.0,STARLINK-4011,PAYLOAD,2024-06-26 06:39:33,15.08837137,0.0001194,53.216,193.7514,91.9821,268.1308,3.7398e-05,3.07e-06,0.0,0 STARLINK-4011,1 52615U 22052T   24178.27747566  .00000307  00000-0  37398-4 0  9990,2 52615  53.2160 193.7514 0001194  91.9821 268.1308 15.08837137117340,6917.889,95.438,540.58,538.928,0.0
52615.0,STARLINK-4011,PAYLOAD,2024-06-27 08:05:44,15.08838031,0.0001136,53.2149,188.9881,73.1183,286.9933,7.6236e-05,9.26e-06,0.0,0 STARLINK-4011,1 52615U 22052T   24179.33731694  .00000926  00000-0  76236-4 0  9994,2 52615  53.2149 188.9881 0001136  73.1183 286.9933 15.08838031117503,6917.886,95.438,540.537,538.966,0.0
52615.0,STARLINK-4011,PAYLOAD,2024-06-27 17:38:03,15.08836546,0.0001091,53.2147,187.2043,82.9643,277.1473,5.3869e-05,5.7e-06,0.0,0 STARLINK-4011,1 52615U 22052T   24179.73475918  .00000570  00000-0  53869-4 0  9994,2 52615  53.2147 187.2043 0001091  82.9643 277.1473 15.08836546117186,6917.891,95.438,540.511,539.001,0.0
52615.0,STARLINK-4011,PAYLOAD,2024-06-28 04:45:45,15.088344,0.0001169,53.215,185.1231,83.7574,276.3551,1.2575e-05,-8.8e-07,0.0,0 STARLINK-4011,1 52615U 22052T   24180.19844371 -.00000088  00000-0  12575-4 0  9993,2 52615  53.2150 185.1231 0001169  83.7574 276.3551 15.08834400117639,6917.898,95.438,540.571,538.954,0.0
52615.0,STARLINK-4011,PAYLOAD,2024-06-28 07:56:31,15.08836021,0.0001211,53.215,184.5282,83.4009,276.7121,2.4324e-05,9.9e-07,0.0,0 STARLINK-4011,1 52615U 22052T   24180.33092268  .00000099  00000-0  24324-4 0  9995,2 52615  53.2150 184.5282 0001211  83.4009 276.7121 15.08836021117274,6917.893,95.438,540.595,538.92,0.0
52615.0,STARLINK-4011,PAYLOAD,2024-06-29 04:36:31,15.08846499,0.0001239,53.2152,180.6625,83.0369,277.0764,0.00010924,1.451e-05,0.0,0 STARLINK-4011,1 52615U 22052T   24181.19203350  .00001451  00000-0  10924-3 0  9999,2 52615  53.2152 180.6625 0001239  83.0369 277.0764 15.08846499117782,6917.861,95.437,540.583,538.868,0.0
52615.0,STARLINK-4011,PAYLOAD,2024-06-29 09:22:40,15.08850279,0.0001212,53.2149,179.7716,84.9656,275.1475,0.00014025,1.946e-05,0.0,0 STARLINK-4011,1 52615U 22052T   24181.39074993  .00001946  00000-0  14025-3 0  9995,2 52615  53.2149 179.7716 0001212  84.9656 275.1475 15.08850279117439,6917.849,95.437,540.552,538.876,0.0
52615.0,STARLINK-4011,PAYLOAD,2024-06-30 04:27:19,15.08838367,0.0001737,53.2156,176.1993,74.7148,285.4036,9.2951e-05,1.191e-05,0.0,0 STARLINK-4011,1 52615U 22052T   24182.18564070  .00001191  00000-0  92951-4 0  9990,2 52615  53.2156 176.1993 0001737  74.7148 285.4036 15.08838367117936,6917.885,95.438,540.952,538.549,0.0
52615.0,STARLINK-4011,PAYLOAD,2024-06-30 09:13:28,15.08838388,0.0001338,53.2161,175.3071,102.7576,257.3566,2.5115e-06,-2.48e-06,0.0,0 STARLINK-4011,1 52615U 22052T   24182.38436057 -.00000248  00000-0  25115-5 0  9997,2 52615  53.2161 175.3071 0001338 102.7576 257.3566 15.08838388117584,6917.885,95.438,540.676,538.825,0.0
52615.0,STARLINK-4011,PAYLOAD,2024-06-30 17:10:24,15.08841834,0.00012,53.215,173.8242,91.7729,268.3401,2.6647e-05,1.36e-06,0.0,0 STARLINK-4011,1 52615U 22052T   24182.71555795  .00000136  00000-0  26647-4 0  9990,2 52615  53.2150 173.8242 0001200  91.7729 268.3401 15.08841834117636,6917.875,95.437,540.57,538.91,0.0
52615.0,STARLINK-4011,PAYLOAD,2024-07-01 09:04:15,15.08844847,0.0001411,53.2158,170.8491,98.9218,261.1934,2.1695e-05,5.7e-07,0.0,0 STARLINK-4011,1 52615U 22052T   24183.37795488  .00000057  00000-0  21695-4 0  9998,2 52615  53.2158 170.8491 0001411  98.9218 261.1934 15.08844847118116,6917.866,95.437,540.707,538.754,0.0
52615.0,STARLINK-4011,PAYLOAD,2024-07-02 04:08:53,15.08835061,0.0001318,53.2153,167.2812,96.5859,263.5283,3.2819e-05,2.34e-06,0.0,0 STARLINK-4011,1 52615U 22052T   24184.17284158  .00000234  00000-0  32819-4 0  9991,2 52615  53.2153 167.2812 0001318  96.5859 263.5283 15.08835061118233,6917.895,95.438,540.672,538.849,0.0
52615.0,STARLINK-4011,PAYLOAD,2024-07-02 08:55:02,15.08835841,0.0001321,53.2153,166.3891,96.5597,263.5546,3.7491e-05,3.09e-06,0.0,0 STARLINK-4011,1 52615U 22052T   24184.37156138  .00000309  00000-0  37491-4 0  9993,2 52615  53.2153 166.3891 0001321  96.5597 263.5546 15.08835841117881,6917.893,95.438,540.672,538.844,0.0
52615.0,STARLINK-4011,PAYLOAD,2024-07-02 15:16:35,15.08836564,0.0001314,53.2154,165.1997,95.9425,264.1717,3.8388e-05,3.23e-06,0.0,0 STARLINK-4011,1 52615U 22052T   24184.63652117  .00000323  00000-0  38388-4 0  9992,2 52615  53.2154 165.1997 0001314  95.9425 264.1717 15.08836564117926,6917.891,95.438,540.665,538.847,0.0
52615.0,STARLINK-4011,PAYLOAD,2024-07-03 05:35:03,15.08840661,0.0001408,53.2161,162.5227,97.1297,262.9855,5.0909e-05,5.22e-06,0.0,0 STARLINK-4011,1 52615U 22052T   24185.23267879  .00000522  00000-0  50909-4 0  9990,2 52615  53.2161 162.5227 0001408  97.1297 262.9855 15.08840661118390,6917.878,95.438,540.717,538.769,0.0
52615.0,STARLINK-4011,PAYLOAD,2024-07-03 21:28:55,15.08833515,0.0001322,53.2155,159.5511,95.0383,265.076,5.0316e-05,5.13e-06,0.0,0 STARLINK-4011,1 52615U 22052T   24185.89508414  .00000513  00000-0  50316-4 0  9997,2 52615  53.2155 159.5511 0001322  95.0383 265.0760 15.08833515118112,6917.9,95.438,540.68,538.851,0.0
52615.0,STARLINK-4011,PAYLOAD,2024-07-04 02:15:04,15.08835478,0.0001274,53.2154,158.6592,93.9679,266.1459,4.1682e-05,3.75e-06,0.0,0 STARLINK-4011,1 52615U 22052T   24186.09380364  .00000375  00000-0  41682-4 0  9994,2 52615  53.2154 158.6592 0001274  93.9679 266.1459 15.08835478118523,6917.894,95.438,540.641,538.878,0.0
